#cP2017  4 20  0  0  0.00000000      96 ORBIT IGS14 HLM  IGS
## 1945 345600.00000000   900.00000000 57863 0.0000000000000
+   32   G01G02G03G04G05G06G07G08G09G10G11G12G13G14G15G16G17
+        G18G19G20G21G22G23G24G25G26G27G28G29G30G31G32  0  0
+          0  0  0  0  0  0  0  0  0  0  0  0  0  0  0  0  0
+          0  0  0  0  0  0  0  0  0  0  0  0  0  0  0  0  0
+          0  0  0  0  0  0  0  0  0  0  0  0  0  0  0  0  0
++         2  2  2  0  2  2  2  2  2  2  2  2  2  3  2  2  2
++         2  2  2  2  2  2  2  2  2  3  2  2  2  2  3  0  0
++         0  0  0  0  0  0  0  0  0  0  0  0  0  0  0  0  0
++         0  0  0  0  0  0  0  0  0  0  0  0  0  0  0  0  0
++         0  0  0  0  0  0  0  0  0  0  0  0  0  0  0  0  0
%c G  cc GPS ccc cccc cccc cccc cccc ccccc ccccc ccccc ccccc
%c cc cc ccc ccc cccc cccc cccc cccc ccccc ccccc ccccc ccccc
%f  1.2500000  1.025000000  0.00000000000  0.000000000000000
%f  0.0000000  0.000000000  0.00000000000  0.000000000000000
%i    0    0    0    0      0      0      0      0         0
%i    0    0    0    0      0      0      0      0         0
/* RAPID ORBIT COMBINATION FROM WEIGHTED AVERAGE OF:        
/* cod emr esa gfz jpl ngs sio usn whu                      
/* REFERENCED TO IGS TIME (IGST) AND TO WEIGHTED MEAN POLE: 
/* PCV:IGS14_1930 OL/AL:FES2004  NONE     Y  ORB:CMB CLK:CMB
*  2017  4 20  5 15  0.00000000
PG01   9593.146721  13702.867000 -20799.093741     53.519408  5  6  5 124       
PG02  13524.955602 -14678.195515  17866.545046    435.909991  7  8  6 109       
PG03  13013.277080  22956.361548  -3157.860893   -103.798657  1  3  7  65       
PG04 -14191.968261   4774.855330  21734.642726 999999.999999
PG05   3624.041162 -18274.821354  18771.878468    -49.854250  4  9  7 120       
PG06  24841.441466  -6635.025325   6712.385684    340.231918  3  6  7  89       
PG07  22118.375389   7844.912466  13012.246897    360.444803  5  7  4  72       
PG08  -4102.234428  24370.498723  -9548.206575    -56.907535  5  9  5  98       
PG09  12912.664837   8498.227469  21571.482612    346.507329  6  6  6  89       
PG10 -17852.184622  -1724.381104 -19598.664134    -72.579158  7  9  6 111       
PG11   3629.006588  16734.325352 -20876.989144   -682.560141  6  7  6 119       
PG12  -8681.053879 -24090.492622  -7616.417764    385.127203  7  8  6 100       
PG13  11775.003757 -23554.754271  -3786.041968    -78.711821  6  8  7  84       
PG14 -17976.024140  15857.404581 -10990.150076    -67.621894  4  7  5 125       
PG15   -395.741115 -23548.649637 -12079.123769   -348.270780  6  6  7  96       
PG16  -5056.576148  16927.187483  19567.706175     31.679966  4  8  4 105       
PG17  17731.151399  -7867.935251 -17712.718868   -183.239319  5  8  4  92       
PG18 -20268.799483 -11442.517852 -12402.691904    611.380098  4  7  8 115       
PG19  18670.187386 -14586.188018 -12559.443175   -506.565545  4 10  2 108       
PG20 -11420.615782 -22671.455127   7671.981936    468.991030  6 11  5 109       
PG21 -25126.806660  -3607.935183   8816.012566   -511.460555  3  6  8 135       
PG22   6603.218533  22967.979872 -11263.074999     35.723206  3  9  7  89       
PG23   5126.072383  19163.493369  17682.979206   -210.192337  2  6  5 117       
PG24  -6762.278714 -14661.429827 -21207.374308    -33.646571  8  7  5  69       
PG25 -17602.667321 -19217.164260   5550.890316   -373.149858  5     9 126       
PG26 -12448.864829   8807.729352  21742.122606   -512.028422  3  4  7 121       
PG27 -12396.991382  23279.733609   1839.134173    243.753372  4 12  8  86       
PG28  17584.717489   6780.133150 -18087.704908    606.342225  6  6  3 107       
PG29  -9937.241103 -11886.492166  21574.318263    611.117706  6  2     86       
PG30  26625.884282    -53.149361    522.000165    158.596143  3  8  7  95       
PG31 -24380.181913   7015.983928   8585.732960    206.118278  6  5  6 128       
PG32 -17810.908744   9052.883065 -17463.389543   -390.280527  5  6  4 143       
*  2017  4 20  5 30  0.00000000
PG01   7218.269744  14000.335728 -21527.785367     53.519966  5  6  5 115       
PG02  15404.955413 -14781.996384  16093.375714    435.903332  7  8  5  98       
PG03  12503.574792  22684.705133  -5946.690626   -103.797431  1  4  7  88       
PG04 -15588.952791   2709.547622  21155.460101 999999.999999
PG05   5089.140328 -16570.078828  19988.080564    -49.852426  3  8  6 116       
PG06  25469.179615  -6473.976900   3932.534332    340.236382  3  6  6  83       
PG07  20567.095120   8143.900964  15180.291222    360.441248  4  7  3  69       
PG08  -4685.883372  25153.201545  -6887.657460    -56.908933  5  9  5 101       
PG09  11910.769299  10736.489799  21145.285078    346.514378  7  6  7  86       
PG10 -19039.989278  -3538.120573 -18198.684207    -72.571912  6  9  7 108       
PG11   1603.508773  17753.141681 -20268.375079   -682.562666  6  7  6 121       
PG12  -8021.943841 -23332.303232 -10270.544676    385.126372  8  8  6 114       
PG13  12096.974704 -23663.040353   -931.485239    -78.713050  5  8  7  97       
PG14 -17497.556804  14484.169895 -13361.068768    -67.623611  4  7  5 125       
PG15    319.460451 -24609.525396  -9662.369090   -348.271662  5  7  8  92       
PG16  -6367.259803  14990.533847  20757.525856     31.680411  4  8  3 109       
PG17  16870.069769  -5858.292237 -19249.282470   -183.237652  5  7  5  91       
PG18 -20889.557463 -12694.176785 -10060.247019    611.381732  3  8  8 112       
PG19  18054.658046 -13196.607358 -14815.084376   -506.564593  3  9  3 104       
PG20 -10484.770617 -22104.854921  10197.549050    468.992526  5 11  5 105       
PG21 -24125.051003  -4015.045824  11299.841134   -511.459579  4  7  8 127       
PG22   5450.578260  22016.578397 -13512.874789     35.712549  4  9  7  94       
PG23   4185.528130  20828.999879  15896.713135   -210.193231     6  5 112       
PG24  -4358.819735 -15030.766285 -21555.917694    -33.646866  8  7  5 124       
PG25 -17736.288379 -19721.933292   2726.756884   -373.155778  6  2  9 132       
PG26 -13928.818625   6819.084843  21566.098261   -512.025623  3  4  7 122       
PG27 -12456.251118  22838.383140   4702.879480    243.759153  3 12  8  79       
PG28  18566.444849   8612.126993 -16299.953281    606.345164  6  6  4 107       
PG29  -8792.703678 -14017.291481  20780.391338    611.115136  6        89       
PG30  26418.909902    237.443517   3333.811059    158.595485  2  8  7  98       
PG31 -25203.747525   6885.555825   5900.148658    206.116354  6  5  5 122       
PG32 -17115.817121   7074.953800 -19006.394391   -390.290860  6  6  3 142       
*  2017  4 20  5 45  0.00000000
PG01   4799.824174  14434.966270 -21890.802455     53.520530  5  6  5 125       
PG02  17074.200604 -14932.960844  14048.699620    435.896717  6  8  5 105       
PG03  11782.962797  22201.295154  -8633.354469   -103.796188     4  6 104       
PG04 -17041.627367    795.724198  20206.362309 999999.999999
PG05   6712.479121 -14850.787793  20856.328552    -49.850727  3  7  6 114       
PG06  25790.715236  -6291.750280   1085.085703    340.240891  3  7  6  87       
PG07  18807.387077   8559.369166  17094.826661    360.437412  5  7  3  75       
PG08  -5122.652347  25674.620848  -4107.708401    -56.909694  5 10  6  95       
PG09  11047.520655  12958.094143  20354.330394    346.521440  7  7  7  93       
PG10 -20207.450915  -5151.436911 -16486.055657    -72.564653  6  9  7  96       
PG11   -304.624635  18815.408653 -19327.414323   -682.564809  6  7  6 129       
PG12  -7149.259912 -22380.493243 -12751.158885    385.125832  8  8  6 120       
PG13  12266.919613 -23499.144393   1939.033668    -78.714538  5  7  7 102       
PG14 -16983.201956  12852.509866 -15496.578769    -67.624884  4  7  5 128       
PG15    906.654355 -25432.015780  -7077.075123   -348.272465  5  6  8 102       
PG16  -7849.039291  13038.439746  21583.011865     31.681200  5  7  3 107       
PG17  16057.373296  -3659.400532 -20443.053332   -183.236143  5  7  5  94       
PG18 -21383.739071 -13705.320259  -7542.110488    611.383300  3  9  7 110       
PG19  17413.692187 -11560.493728 -16823.242312   -506.563220  3  8  3 106       
PG20  -9327.879573 -21387.634857  12546.514272    468.993655  5 11  5 105       
PG21 -22888.656640  -4520.272748  13597.354276   -511.456720  4  7  7 133       
PG22   4092.412445  20938.684104 -15525.900629     35.701640  5  9  7  59       
PG23   3399.308293  22337.646685  13836.107136   -210.193788     7  4 114       
PG24  -1956.379852 -15523.934780 -21536.785089    -33.648097  9  7  5  57       
PG25 -17693.565449 -19969.662756   -143.780352   -373.161713  6  4  9 120       
PG26 -15482.910512   4941.742761  21019.124068   -512.022879  3  3  7 121       
PG27 -12429.062404  22098.270718   7484.537709    243.764904  3 11  9 102       
PG28  19518.146856  10198.937967 -14218.780081    606.347881  6  5  4 103       
PG29  -7811.935657 -16106.680043  19629.029978    611.112244  6  3     98       
PG30  25914.929362    571.724246   6088.683381    158.594868  2  8  7  99       
PG31 -25729.230023   6757.717897   3115.547072    206.114102  6  7  5 131       
PG32 -16470.539384   4917.162065 -20221.511053   -390.301189  6  7  2 142       
EOF
